NORAD_CAT_ID,OBJECT_NAME,OBJECT_TYPE,EPOCH,MEAN_MOTION,ECCENTRICITY,INCLINATION,RA_OF_ASC_NODE,ARG_OF_PERICENTER,MEAN_ANOMALY,BSTAR,MEAN_MOTION_DOT,MEAN_MOTION_DDOT,TLE_LINE0,TLE_LINE1,TLE_LINE2,SEMIMAJOR_AXIS,PERIOD,APOGEE,PERIGEE,DECAYED
53610.0,STARLINK-4610,PAYLOAD,2024-01-12 10:17:41,15.08834954,0.0001404,53.2162,168.3964,71.2521,288.8623,7.6178e-05,9.24e-06,0.0,0 STARLINK-4610,1 53610U 22104Y   24012.42894701  .00000924  00000-0  76178-4 0  9996,2 53610  53.2162 168.3964 0001404  71.2521 288.8623 15.08834954 76210,6917.896,95.438,540.732,538.79,0.0
53610.0,STARLINK-4610,PAYLOAD,2024-01-12 13:28:27,15.08836009,0.000138,53.2161,167.8012,72.3047,287.8096,4.7376e-05,4.66e-06,0.0,0 STARLINK-4610,1 53610U 22104Y   24012.56142752  .00000466  00000-0  47376-4 0  9992,2 53610  53.2161 167.8012 0001380  72.3047 287.8096 15.08836009 76806,6917.893,95.438,540.712,538.803,0.0
53610.0,STARLINK-4610,PAYLOAD,2024-01-12 16:39:13,15.08833121,0.0001679,53.2163,167.2087,50.6099,309.5042,7.0627e-05,8.36e-06,0.0,0 STARLINK-4610,1 53610U 22104Y   24012.69391014  .00000836  00000-0  70627-4 0  9999,2 53610  53.2163 167.2087 0001679  50.6099 309.5042 15.08833121 76828,6917.901,95.438,540.928,538.605,0.0
53610.0,STARLINK-4610,PAYLOAD,2024-01-13 14:54:36,15.08847108,0.0001277,53.2167,163.0417,82.9718,277.1419,4.3343e-05,4.02e-06,0.0,0 STARLINK-4610,1 53610U 22104Y   24013.62126128  .00000402  00000-0  43343-4 0  9999,2 53610  53.2167 163.0417 0001277  82.9718 277.1419 15.08847108 76966,6917.859,95.437,540.607,538.84,0.0
53610.0,STARLINK-4610,PAYLOAD,2024-01-14 09:59:14,15.08846751,0.0001083,53.2178,159.4725,74.1498,285.9613,-8.478e-07,-3.01e-06,0.0,0 STARLINK-4610,1 53610U 22104Y   24014.41614389 -.00000301  00000-0 -84780-6 0  9990,2 53610  53.2178 159.4725 0001083  74.1498 285.9613 15.08846751 76519,6917.86,95.437,540.474,538.976,0.0
53610.0,STARLINK-4610,PAYLOAD,2024-01-14 14:45:24,15.08843727,0.0001344,53.2164,158.5812,78.5024,281.6119,0.00010534,1.389e-05,0.0,0 STARLINK-4610,1 53610U 22104Y   24014.61486268  .00001389  00000-0  10534-3 0  9993,2 53610  53.2164 158.5812 0001344  78.5024 281.6119 15.08843727 77115,6917.869,95.437,540.664,538.804,0.0
53610.0,STARLINK-4610,PAYLOAD,2024-01-14 19:31:33,15.08847891,0.0001341,53.2167,157.6877,88.6362,271.4784,0.00012105,1.64e-05,0.0,0 STARLINK-4610,1 53610U 22104Y   24014.81357921  .00001640  00000-0  12105-3 0  9994,2 53610  53.2167 157.6877 0001341  88.6362 271.4784 15.08847891 77147,6917.856,95.437,540.649,538.794,0.0
53610.0,STARLINK-4610,PAYLOAD,2024-01-15 09:50:02,15.08839286,0.0001588,53.2164,155.0126,98.528,261.5892,1.0812e-05,-1.16e-06,0.0,0 STARLINK-4610,1 53610U 22104Y   24015.40974792 -.00000116  00000-0  10812-4 0  9993,2 53610  53.2164 155.0126 0001588  98.5280 261.5892 15.08839286 76660,6917.883,95.438,540.846,538.649,0.0
53610.0,STARLINK-4610,PAYLOAD,2024-01-15 14:36:11,15.08841957,0.0001447,53.2167,154.1212,91.1328,268.983,3.6643e-05,2.95e-06,0.0,0 STARLINK-4610,1 53610U 22104Y   24015.60846567  .00000295  00000-0  36643-4 0  9990,2 53610  53.2167 154.1212 0001447  91.1328 268.9830 15.08841957 77263,6917.874,95.437,540.74,538.738,0.0
53610.0,STARLINK-4610,PAYLOAD,2024-01-16 11:16:13,15.0883283,0.0001378,53.2157,150.2563,86.6988,273.4162,-4.2844e-05,-9.7e-06,0.0,0 STARLINK-4610,1 53610U 22104Y   24016.46959572 -.00000970  00000-0 -42844-4 0  9998,2 53610  53.2157 150.2563 0001378  86.6988 273.4162 15.08832830 76822,6917.902,95.438,540.721,538.814,0.0
53610.0,STARLINK-4610,PAYLOAD,2024-01-16 14:26:59,15.08835893,0.0001297,53.2161,149.6625,74.888,285.2256,-1.3341e-05,-5e-06,0.0,0 STARLINK-4610,1 53610U 22104Y   24016.60207362 -.00000500  00000-0 -13341-4 0  9996,2 53610  53.2161 149.6625 0001297  74.8880 285.2256 15.08835893 77411,6917.893,95.438,540.655,538.861,0.0
53610.0,STARLINK-4610,PAYLOAD,2024-01-17 14:17:46,15.08835391,0.0001007,53.2164,145.2019,66.949,293.1609,6.9055e-05,8.11e-06,0.0,0 STARLINK-4610,1 53610U 22104Y   24017.59567506  .00000811  00000-0  69055-4 0  9990,2 53610  53.2164 145.2019 0001007  66.9490 293.1609 15.08835391 77560,6917.894,95.438,540.456,539.063,0.0
53610.0,STARLINK-4610,PAYLOAD,2024-01-17 15:53:09,15.08834552,0.0001338,53.2164,144.9046,87.8189,272.2956,0.00013113,1.799e-05,0.0,0 STARLINK-4610,1 53610U 22104Y   24017.66191428  .00001799  00000-0  13113-3 0  9993,2 53610  53.2164 144.9046 0001338  87.8189 272.2956 15.08834552 77000,6917.897,95.438,540.688,538.836,0.0
53610.0,STARLINK-4610,PAYLOAD,2024-01-18 14:08:33,15.08840527,0.0001375,53.2166,140.7417,71.7178,288.3963,0.0001508,2.113e-05,0.0,0 STARLINK-4610,1 53610U 22104Y   24018.58927382  .00002113  00000-0  15080-3 0  9997,2 53610  53.2166 140.7417 0001375  71.7178 288.3963 15.08840527 77712,6917.879,95.438,540.695,538.793,0.0
53610.0,STARLINK-4610,PAYLOAD,2024-01-18 15:43:56,15.08844188,0.00013,53.2167,140.4439,80.8035,279.3104,0.0001813,2.599e-05,0.0,0 STARLINK-4610,1 53610U 22104Y   24018.65551039  .00002599  00000-0  18130-3 0  9994,2 53610  53.2167 140.4439 0001300  80.8035 279.3104 15.08844188 77157,6917.868,95.437,540.632,538.833,0.0
53610.0,STARLINK-4610,PAYLOAD,2024-01-19 13:59:20,15.08846208,0.0001432,53.2163,136.2821,69.0949,291.0197,9.8225e-05,1.276e-05,0.0,0 STARLINK-4610,1 53610U 22104Y   24019.58287151  .00001276  00000-0  98225-4 0  9993,2 53610  53.2163 136.2821 0001432  69.0949 291.0197 15.08846208 77866,6917.861,95.437,540.717,538.736,0.0
53610.0,STARLINK-4610,PAYLOAD,2024-01-19 17:10:05,15.08853366,0.0001344,53.2167,135.6849,86.8623,273.2522,0.00014988,2.099e-05,0.0,0 STARLINK-4610,1 53610U 22104Y   24019.71534392  .00002099  00000-0  14988-3 0  9997,2 53610  53.2167 135.6849 0001344  86.8623 273.2522 15.08853366 77318,6917.84,95.437,540.634,538.775,0.0
53610.0,STARLINK-4610,PAYLOAD,2024-01-20 10:39:20,15.08848839,0.0001794,53.2171,132.4155,101.1468,258.9726,3.1025e-05,2.06e-06,0.0,0 STARLINK-4610,1 53610U 22104Y   24020.44399048  .00000206  00000-0  31025-4 0  9996,2 53610  53.2171 132.4155 0001794 101.1468 258.9726 15.08848839 77422,6917.853,95.437,540.959,538.477,0.0
53610.0,STARLINK-4610,PAYLOAD,2024-01-20 13:50:05,15.08865056,0.0001599,53.2177,131.8175,81.8503,278.267,0.00012998,1.783e-05,0.0,0 STARLINK-4610,1 53610U 22104Y   24020.57645653  .00001783  00000-0  12998-3 0  9994,2 53610  53.2177 131.8175 0001599  81.8503 278.2670 15.08865056 78019,6917.804,95.436,540.775,538.563,0.0
53610.0,STARLINK-4610,PAYLOAD,2024-01-21 13:40:54,15.08842069,0.0001373,53.2172,127.357,101.961,258.1536,-5.7478e-05,-1.203e-05,0.0,0 STARLINK-4610,1 53610U 22104Y   24021.57007204 -.00001203  00000-0 -57478-4 0  9991,2 53610  53.2172 127.3570 0001373 101.9610 258.1536 15.08842069 77595,6917.874,95.437,540.689,538.789,0.0
53610.0,STARLINK-4610,PAYLOAD,2024-01-21 16:51:40,15.08840888,0.0001363,53.2172,126.7627,99.5904,260.5242,-6.3234e-05,-1.294e-05,0.0,0 STARLINK-4610,1 53610U 22104Y   24021.70255291 -.00001294  00000-0 -63234-4 0  9994,2 53610  53.2172 126.7627 0001363  99.5904 260.5242 15.08840888 78182,6917.878,95.437,540.686,538.8,0.0
53610.0,STARLINK-4610,PAYLOAD,2024-01-22 07:10:09,15.08837085,0.000165,53.2172,124.0863,102.2716,257.8461,-0.00010338,-1.933e-05,0.0,0 STARLINK-4610,1 53610U 22104Y   24022.29872057 -.00001933  00000-0 -10338-3 0  9990,2 53610  53.2172 124.0863 0001650 102.2716 257.8461 15.08837085 78274,6917.889,95.438,540.896,538.613,0.0
53610.0,STARLINK-4610,PAYLOAD,2024-01-22 13:31:41,15.08847844,0.0001594,53.2172,122.8972,91.1152,269.0023,-1.1039e-05,-4.64e-06,0.0,0 STARLINK-4610,1 53610U 22104Y   24022.56367121 -.00000464  00000-0 -11039-4 0  9999,2 53610  53.2172 122.8972 0001594  91.1152 269.0023 15.08847844 78316,6917.856,95.437,540.824,538.619,0.0
53610.0,STARLINK-4610,PAYLOAD,2024-01-23 11:47:05,15.08835815,0.0001442,53.217,118.7339,98.4631,261.6524,9.3853e-05,1.206e-05,0.0,0 STARLINK-4610,1 53610U 22104Y   24023.49103554  .00001206  00000-0  93853-4 0  9997,2 53610  53.2170 118.7339 0001442  98.4631 261.6524 15.08835815 77889,6917.893,95.438,540.756,538.761,0.0
53610.0,STARLINK-4610,PAYLOAD,2024-01-23 13:22:28,15.08838543,0.0001434,53.2172,118.4365,96.5697,263.5458,0.00011938,1.612e-05,0.0,0 STARLINK-4610,1 53610U 22104Y   24023.55727357  .00001612  00000-0  11938-3 0  9991,2 53610  53.2172 118.4365 0001434  96.5697 263.5458 15.08838543 78462,6917.885,95.438,540.742,538.758,0.0
53610.0,STARLINK-4610,PAYLOAD,2024-01-24 11:37:53,15.08834183,0.0001478,53.2187,114.2731,105.1659,254.9497,-2.4534e-05,-6.78e-06,0.0,0 STARLINK-4610,1 53610U 22104Y   24024.48464557 -.00000678  00000-0 -24534-4 0  9994,2 53610  53.2187 114.2731 0001478 105.1659 254.9497 15.08834183 78038,6917.898,95.438,540.786,538.741,0.0
53610.0,STARLINK-4610,PAYLOAD,2024-01-24 13:13:16,15.088358,0.0001433,53.2176,113.9754,81.6315,278.484,-7.0756e-06,-4.01e-06,0.0,0 STARLINK-4610,1 53610U 22104Y   24024.55088594 -.00000401  00000-0 -70756-5 0  9997,2 53610  53.2176 113.9754 0001433  81.6315 278.4840 15.08835800 78619,6917.893,95.438,540.75,538.767,0.0
53610.0,STARLINK-4610,PAYLOAD,2024-01-25 11:28:40,15.08843811,0.000134,53.2179,109.8169,89.3555,270.7591,2.8771e-06,-2.42e-06,0.0,0 STARLINK-4610,1 53610U 22104Y   24025.47824349 -.00000242  00000-0  28771-5 0  9997,2 53610  53.2179 109.8169 0001340  89.3555 270.7591 15.08843811 78185,6917.869,95.437,540.661,538.807,0.0
53610.0,STARLINK-4610,PAYLOAD,2024-01-25 13:04:03,15.08845767,0.0001378,53.2179,109.5168,75.6436,284.4709,1.4319e-05,-6e-07,0.0,0 STARLINK-4610,1 53610U 22104Y   24025.54448220 -.00000060  00000-0  14319-4 0  9995,2 53610  53.2179 109.5168 0001378  75.6436 284.4709 15.08845767 78767,6917.863,95.437,540.681,538.774,0.0
53610.0,STARLINK-4610,PAYLOAD,2024-01-26 11:19:27,15.08841703,0.0001985,53.2187,105.3473,56.4541,303.664,0.00011903,1.607e-05,0.0,0 STARLINK-4610,1 53610U 22104Y   24026.47184594  .00001607  00000-0  11903-3 0  9991,2 53610  53.2187 105.3473 0001985  56.4541 303.6640 15.08841703 78334,6917.875,95.437,541.113,538.367,0.0
